CCSDS_OMM_VERS = 2.0
CREATION_DATE  = 
ORIGINATOR     = 

OBJECT_NAME    = CYGNUS NG-23
OBJECT_ID      = 2025-208A
CENTER_NAME    = EARTH
REF_FRAME      = TEME
TIME_SYSTEM    = UTC
MEAN_ELEMENT_THEORY = SGP/SGP4

EPOCH          = 2025-12-10T13:00:09.919872
MEAN_MOTION    = 15.49478601
ECCENTRICITY   = .00033601
INCLINATION    = 51.6308
RA_OF_ASC_NODE = 153.3620
ARG_OF_PERICENTER = 230.7092
MEAN_ANOMALY   = 129.3599

EPHEMERIS_TYPE = 0
CLASSIFICATION_TYPE = U
NORAD_CAT_ID   = 65616
ELEMENT_SET_NO = 999
REV_AT_EPOCH   = 22
BSTAR          = .2844348E-3
MEAN_MOTION_DOT = .15517E-3
MEAN_MOTION_DDOT = 0

CCSDS_OMM_VERS = 2.0
CREATION_DATE  = 
ORIGINATOR     = 

OBJECT_NAME    = DRAGONFLY
OBJECT_ID      = 1998-067XH
CENTER_NAME    = EARTH
REF_FRAME      = TEME
TIME_SYSTEM    = UTC
MEAN_ELEMENT_THEORY = SGP/SGP4

EPOCH          = 2025-12-10T19:56:18.629952
MEAN_MOTION    = 15.71044104
ECCENTRICITY   = .0006581
INCLINATION    = 51.6249
RA_OF_ASC_NODE = 145.5341
ARG_OF_PERICENTER = 265.1045
MEAN_ANOMALY   = 94.9201

EPHEMERIS_TYPE = 0
CLASSIFICATION_TYPE = U
NORAD_CAT_ID   = 65729
ELEMENT_SET_NO = 999
REV_AT_EPOCH   = 1286
BSTAR          = .16068E-2
MEAN_MOTION_DOT = .211019E-2
MEAN_MOTION_DDOT = 0

CCSDS_OMM_VERS = 2.0
CREATION_DATE  = 
ORIGINATOR     = 

OBJECT_NAME    = 1998-067XK
OBJECT_ID      = 1998-067XK
CENTER_NAME    = EARTH
REF_FRAME      = TEME
TIME_SYSTEM    = UTC
MEAN_ELEMENT_THEORY = SGP/SGP4

EPOCH          = 2025-12-10T11:59:54.530016
MEAN_MOTION    = 15.65134348
ECCENTRICITY   = .00051808
INCLINATION    = 51.6281
RA_OF_ASC_NODE = 148.5918
ARG_OF_PERICENTER = 231.8122
MEAN_ANOMALY   = 128.2407

EPHEMERIS_TYPE = 0
CLASSIFICATION_TYPE = U
NORAD_CAT_ID   = 65731
ELEMENT_SET_NO = 999
REV_AT_EPOCH   = 1279
BSTAR          = .12258975E-2
MEAN_MOTION_DOT = .124892E-2
MEAN_MOTION_DDOT = 0

CCSDS_OMM_VERS = 2.0
CREATION_DATE  = 
ORIGINATOR     = 

OBJECT_NAME    = RSP-03
OBJECT_ID      = 1998-067XL
CENTER_NAME    = EARTH
REF_FRAME      = TEME
TIME_SYSTEM    = UTC
MEAN_ELEMENT_THEORY = SGP/SGP4

EPOCH          = 2025-12-10T19:51:35.371008
MEAN_MOTION    = 15.67939317
ECCENTRICITY   = .0005892
INCLINATION    = 51.6264
RA_OF_ASC_NODE = 146.2697
ARG_OF_PERICENTER = 237.5222
MEAN_ANOMALY   = 122.5205

EPHEMERIS_TYPE = 0
CLASSIFICATION_TYPE = U
NORAD_CAT_ID   = 65732
ELEMENT_SET_NO = 999
REV_AT_EPOCH   = 1286
BSTAR          = .14116E-2
MEAN_MOTION_DOT = .161929E-2
MEAN_MOTION_DDOT = 0

CCSDS_OMM_VERS = 2.0
CREATION_DATE  = 
ORIGINATOR     = 

OBJECT_NAME    = GHS-01
OBJECT_ID      = 1998-067XM
CENTER_NAME    = EARTH
REF_FRAME      = TEME
TIME_SYSTEM    = UTC
MEAN_ELEMENT_THEORY = SGP/SGP4

EPOCH          = 2025-12-10T18:51:37.289664
MEAN_MOTION    = 15.73712574
ECCENTRICITY   = .000699
INCLINATION    = 51.6282
RA_OF_ASC_NODE = 145.2401
ARG_OF_PERICENTER = 266.9244
MEAN_ANOMALY   = 93.0955

EPHEMERIS_TYPE = 0
CLASSIFICATION_TYPE = U
NORAD_CAT_ID   = 65733
ELEMENT_SET_NO = 999
REV_AT_EPOCH   = 1287
BSTAR          = .17979E-2
MEAN_MOTION_DOT = .266358E-2
MEAN_MOTION_DDOT = 0

CCSDS_OMM_VERS = 2.0
CREATION_DATE  = 
ORIGINATOR     = 

OBJECT_NAME    = YOTSUBA-KULOVER
OBJECT_ID      = 1998-067XN
CENTER_NAME    = EARTH
REF_FRAME      = TEME
TIME_SYSTEM    = UTC
MEAN_ELEMENT_THEORY = SGP/SGP4

EPOCH          = 2025-12-10T11:16:03.070272
MEAN_MOTION    = 15.59021065
ECCENTRICITY   = .00015507
INCLINATION    = 51.6286
RA_OF_ASC_NODE = 151.3857
ARG_OF_PERICENTER = 232.2961
MEAN_ANOMALY   = 127.7891

EPHEMERIS_TYPE = 0
CLASSIFICATION_TYPE = U
NORAD_CAT_ID   = 65941
ELEMENT_SET_NO = 999
REV_AT_EPOCH   = 950
BSTAR          = .11321165E-2
MEAN_MOTION_DOT = .90413E-3
MEAN_MOTION_DDOT = 0

CCSDS_OMM_VERS = 2.0
CREATION_DATE  = 
ORIGINATOR     = 

OBJECT_NAME    = BOTAN
OBJECT_ID      = 1998-067XP
CENTER_NAME    = EARTH
REF_FRAME      = TEME
TIME_SYSTEM    = UTC
MEAN_ELEMENT_THEORY = SGP/SGP4

EPOCH          = 2025-12-10T11:31:01.401312
MEAN_MOTION    = 15.62212709
ECCENTRICITY   = .00033822
INCLINATION    = 51.6281
RA_OF_ASC_NODE = 150.7055
ARG_OF_PERICENTER = 220.3642
MEAN_ANOMALY   = 139.7102

EPHEMERIS_TYPE = 0
CLASSIFICATION_TYPE = U
NORAD_CAT_ID   = 65942
ELEMENT_SET_NO = 999
REV_AT_EPOCH   = 951
BSTAR          = .15087728E-2
MEAN_MOTION_DOT = .137252E-2
MEAN_MOTION_DDOT = 0

CCSDS_OMM_VERS = 2.0
CREATION_DATE  = 
ORIGINATOR     = 

OBJECT_NAME    = E-KAGAKU-1
OBJECT_ID      = 1998-067XQ
CENTER_NAME    = EARTH
REF_FRAME      = TEME
TIME_SYSTEM    = UTC
MEAN_ELEMENT_THEORY = SGP/SGP4

EPOCH          = 2025-12-10T06:39:08.237952
MEAN_MOTION    = 15.59004320
ECCENTRICITY   = .00052507
INCLINATION    = 51.6298
RA_OF_ASC_NODE = 152.3458
ARG_OF_PERICENTER = 191.2269
MEAN_ANOMALY   = 168.8608

EPHEMERIS_TYPE = 0
CLASSIFICATION_TYPE = U
NORAD_CAT_ID   = 65943
ELEMENT_SET_NO = 999
REV_AT_EPOCH   = 947
BSTAR          = .12588803E-2
MEAN_MOTION_DOT = .100705E-2
MEAN_MOTION_DDOT = 0

CCSDS_OMM_VERS = 2.0
CREATION_DATE  = 
ORIGINATOR     = 

OBJECT_NAME    = HRC MONOBLOCK CAMERA
OBJECT_ID      = 1998-067XR
CENTER_NAME    = EARTH
REF_FRAME      = TEME
TIME_SYSTEM    = UTC
MEAN_ELEMENT_THEORY = SGP/SGP4

EPOCH          = 2025-12-10T01:53:33.064224
MEAN_MOTION    = 15.53848796
ECCENTRICITY   = .00036764
INCLINATION    = 51.6294
RA_OF_ASC_NODE = 154.7721
ARG_OF_PERICENTER = 173.0963
MEAN_ANOMALY   = 187.0078

EPHEMERIS_TYPE = 0
CLASSIFICATION_TYPE = U
NORAD_CAT_ID   = 66052
ELEMENT_SET_NO = 999
REV_AT_EPOCH   = 842
BSTAR          = .70942813E-3
MEAN_MOTION_DOT = .46287E-3
MEAN_MOTION_DDOT = 0

CCSDS_OMM_VERS = 2.0
CREATION_DATE  = 
ORIGINATOR     = 

OBJECT_NAME    = HTV-X1
OBJECT_ID      = 2025-241A
CENTER_NAME    = EARTH
REF_FRAME      = TEME
TIME_SYSTEM    = UTC
MEAN_ELEMENT_THEORY = SGP/SGP4

EPOCH          = 2025-12-10T13:00:09.919872
MEAN_MOTION    = 15.49478601
ECCENTRICITY   = .00033601
INCLINATION    = 51.6308
RA_OF_ASC_NODE = 153.3620
ARG_OF_PERICENTER = 230.7092
MEAN_ANOMALY   = 129.3599

EPHEMERIS_TYPE = 0
CLASSIFICATION_TYPE = U
NORAD_CAT_ID   = 66174
ELEMENT_SET_NO = 999
REV_AT_EPOCH   = 51
BSTAR          = .2844348E-3
MEAN_MOTION_DOT = .15517E-3
MEAN_MOTION_DDOT = 0

CCSDS_OMM_VERS = 2.0
CREATION_DATE  = 
ORIGINATOR     = 

OBJECT_NAME    = SZ-21 MODULE
OBJECT_ID      = 2025-246C
CENTER_NAME    = EARTH
REF_FRAME      = TEME
TIME_SYSTEM    = UTC
MEAN_ELEMENT_THEORY = SGP/SGP4

EPOCH          = 2025-12-10T11:51:01.003968
MEAN_MOTION    = 15.62311534
ECCENTRICITY   = .00062785
INCLINATION    = 41.4772
RA_OF_ASC_NODE = 29.7454
ARG_OF_PERICENTER = 248.1298
MEAN_ANOMALY   = 111.8874

EPHEMERIS_TYPE = 0
CLASSIFICATION_TYPE = U
NORAD_CAT_ID   = 66515
ELEMENT_SET_NO = 999
REV_AT_EPOCH   = 409
BSTAR          = .39110764E-3
MEAN_MOTION_DOT = .35412E-3
MEAN_MOTION_DDOT = 0

CCSDS_OMM_VERS = 2.0
CREATION_DATE  = 
ORIGINATOR     = 

OBJECT_NAME    = SHENZHOU-22
OBJECT_ID      = 2025-272A
CENTER_NAME    = EARTH
REF_FRAME      = TEME
TIME_SYSTEM    = UTC
MEAN_ELEMENT_THEORY = SGP/SGP4

EPOCH          = 2025-12-10T14:25:11.377632
MEAN_MOTION    = 15.59037498
ECCENTRICITY   = .00087682
INCLINATION    = 41.4683
RA_OF_ASC_NODE = 29.6917
ARG_OF_PERICENTER = 13.0632
MEAN_ANOMALY   = 347.0432

EPHEMERIS_TYPE = 0
CLASSIFICATION_TYPE = U
NORAD_CAT_ID   = 66645
ELEMENT_SET_NO = 999
REV_AT_EPOCH   = 26357
BSTAR          = .43760673E-3
MEAN_MOTION_DOT = .34963E-3
MEAN_MOTION_DDOT = 0

